PERSEUS-M1              
1 40039U 14033AF  26188.30722330  .00001325  00000+0  12443-3 0  9999
2 40039  97.9646 132.7706 0010459 225.6574 134.3790 14.95695464653649
POLYITAN-1              
1 40042U 14033AJ  26188.01799810  .00014746  00000+0  45003-3 0  9997
2 40042  98.0940 216.1644 0008445  87.2204 273.0003 15.34009336656635
TIGRISAT                
1 40043U 14033AK  26187.92329465  .00001560  00000+0  18432-3 0  9998
2 40043  97.7856 337.4856 0049358  11.5693 348.6644 14.85232145648553
AEROCUBE 6A             
1 40045U 14033AM  26187.72615363  .00004181  00000+0  35158-3 0  9999
2 40045  97.7237 354.4701 0037299 310.0222  49.7729 14.98288236649541
AEROCUBE 6B             
1 40046U 14033AN  26188.44336256  .00003136  00000+0  25510-3 0  9991
2 40046  97.7216 355.0141 0037838 297.6399  62.0985 14.99754106649792
CANX-4                  
1 40055U 14034C   26187.60622333  .00000917  00000+0  12484-3 0  9993
2 40055  98.3097  63.6301 0011764 313.3306  46.6924 14.81300885647409
CANX-5                  
1 40056U 14034D   26188.07726639  .00000799  00000+0  10969-3 0  9994
2 40056  98.3099  64.1631 0011730 311.9106  48.1105 14.81318663638286
UKUBE-1                 
1 40074U 14037F   26188.46216771  .00004886  00000+0  27440-3 0  9994
2 40074  98.4246 193.8687 0003346 101.4516 258.7088 15.13873030651625
BRITE-PL2 (HEWELIUSZ)   
1 40119U 14049B   26188.25660079  .00001956  00000+0  18560-3 0  9996
2 40119  97.9109 300.4136 0014883  47.9370 312.3113 14.94668605644448
AEROCUBE 5C             
1 40965U 15058B   26188.01793933  .00002265  00000+0  20599-3 0  9995
2 40965  64.7654 200.8931 0131793  55.5592 305.7892 14.91542419368614
AEROCUBE 7              
1 40966U 15058C   26187.68997801  .00003817  00000+0  30749-3 0  9990
2 40966  64.7609 183.7222 0121451  54.0290 307.2015 14.95859784368878
FOX-1A (AO-85)          
1 40967U 15058D   26188.54145641  .00001843  00000+0  17269-3 0  9993
2 40967  64.7734 215.7243 0131774  48.7119 312.5249 14.91059408116607
SINOD-D 1               
1 40968U 15058E   26188.46777111  .00003101  00000+0  25201-3 0  9992
2 40968  64.7735 195.3949 0120421  45.1249 315.9566 14.96039990119697
SNAP-3 ALICE            
1 40970U 15058G   26188.26932679  .00118862  00000+0  11466-2 0  9993
2 40970  64.7496  34.2483 0023593 354.6378   5.4514 15.65535543120026
LMRST-SAT               
1 40971U 15058H   26188.50198351  .00001803  00000+0  17035-3 0  9997
2 40971  64.7739 212.2235 0133327  50.7368 310.5483 14.90675102116584
SNAP-3 EDDIE            
1 40972U 15058J   26187.98823652  .00119451  00000+0  10957-2 0  9992
2 40972  64.7406  25.8038 0024354 357.6956   2.4076 15.66758291122123
PROPCUBE 3              
1 40973U 15058K   26188.42061941  .00002731  00000+0  23118-3 0  9994
2 40973  64.7669 189.3128 0125197  51.9777 309.2559 14.94374781117826
BISONSAT                
1 40974U 15058L   26188.21317307  .00011741  00000+0  55568-3 0  9997
2 40974  64.7579 108.8709 0081316  39.2188 321.4789 15.16775347118658
SNAP-3 JIMI             
1 40975U 15058M   26188.29166875  .00005666  00000+0  38731-3 0  9990
2 40975  64.7638 156.1518 0107253  47.3702 313.6396 15.02533240117240
PROPCUBE 1 (FLORA)      
1 40976U 15058N   26188.13981267  .00001610  00000+0  15981-3 0  9991
2 40976  64.7732 233.3940 0131904  53.1708 308.1416 14.89304026119239
SINOD-D 3               
1 40977U 15058P   26187.38460425  .00003553  00000+0  30148-3 0  9996
2 40977  64.7708 215.8665 0120399  50.5430 310.6262 14.94130258117629
RAVAN                   
1 41849U 16067B   26187.66258791  .00046734  00000+0  65190-3 0  9991
2 41849  97.9849  79.5105 0001483 280.9729  79.1358 15.56768949530724
CELTEE 1                
1 41850U 16067C   26187.56424572  .00004765  00000+0  22559-3 0  9994
2 41850  98.0649  55.4525 0002029 120.7122 239.4312 15.19883845528821
OPTICUBE 04             
1 41851U 16067D   26188.16187804  .00001547  00000+0  10003-3 0  9992
2 41851  98.0684  41.4866 0016714  53.5555 306.7211 15.09748147528182
AEROCUBE 8D             
1 41852U 16067E   26187.58366541  .00006643  00000+0  27194-3 0  9996
2 41852  98.0655  59.2307 0004930  77.9453 282.2334 15.24686709529022
AEROCUBE 8C             
1 41853U 16067F   26188.06477431  .00005788  00000+0  23555-3 0  9998
2 41853  98.0530  56.9510 0005110  10.9574 349.1772 15.24945674529092
CORVUS BC2              
1 42846U 17042X   26188.38872308  .00002737  00000+0  18929-3 0  9992
2 42846  97.4091 348.9563 0013947  47.7457 312.4951 15.06428633490109
CORVUS BC1              
1 42847U 17042Y   26188.51393161  .00002244  00000+0  15535-3 0  9996
2 42847  97.4125 349.9041 0012399  26.5103 333.6756 15.06595315490158
MAKERSAT 0              
1 43016U 17073D   26187.63911722  .00016571  00000+0  44083-3 0  9998
2 43016  97.4596  70.3150 0104976 202.8118 156.8443 15.32782580469440
SIRION PATHFINDER-2     
1 43759U 18099B   26187.67083206  .00004650  00000+0  25427-3 0  9998
2 43759  97.4242 236.2659 0007650 223.3987 136.6643 15.14731584415573
